STARLINK-35621          
1 66156U 25240L   25312.50001156 -.01918847  00000+0 -16882-1 0  9993
2 66156  53.1586 268.9259 0001360  94.8604  90.2417 15.71044901  3408
STARLINK-35594          
1 66157U 25240M   25312.50001156 -.01920038  00000+0 -16895-1 0  9993
2 66157  53.1581 268.9222 0001099  98.2609  88.7575 15.71045403  3401
STARLINK-35587          
1 66158U 25240N   25312.50001156 -.01917638  00000+0 -16871-1 0  9990
2 66158  53.1581 268.9176 0001267  89.1381  99.7981 15.71043936  3405
STARLINK-35586          
1 66159U 25240P   25312.50001156 -.01923780  00000+0 -16931-1 0  9993
2 66159  53.1578 268.9139 0001094  88.5926 102.2610 15.71047359  3409
STARLINK-35636          
1 66160U 25240Q   25312.50001156 -.01919549  00000+0 -16899-1 0  9996
2 66160  53.1575 268.9052 0001248  87.5175 107.1914 15.71032778  3408
STARLINK-35635          
1 66161U 25240R   25312.50001156 -.01908964  00000+0 -16790-1 0  9996
2 66161  53.1587 268.9094 0001315  86.3157 106.4584 15.71036894  3408
STARLINK-35633          
1 66162U 25240S   25312.50001156 -.01833720  00000+0 -16396-1 0  9996
2 66162  53.1590 268.9019 0001191  92.5934 104.0067 15.71048828  3404
STARLINK-35607          
1 66163U 25240T   25312.50001156 -.01744718  00000+0 -15523-1 0  9996
2 66163  53.1590 268.8982 0000948  73.9591 124.5687 15.70998223  3401
STARLINK-35614          
1 66164U 25240U   25312.50001156 -.01844473  00000+0 -16502-1 0  9994
2 66164  53.1589 268.8899 0001133  89.7830 112.5667 15.71055057  3400
STARLINK-35575          
1 66165U 25240V   25312.50001156 -.01773492  00000+0 -15806-1 0  9993
2 66165  53.1589 268.8938 0001087  91.2657 109.1892 15.71011191  3401
STARLINK-35624          
1 66166U 25240W   25312.50001156 -.01826585  00000+0 -16328-1 0  9996
2 66166  53.1588 268.8823 0001130  90.7693 115.4173 15.71041935  3408
STARLINK-35641          
1 66167U 25240X   25312.50001156 -.01738562  00000+0 -15460-1 0  9990
2 66167  53.1590 268.8857 0001314  79.3571 124.9221 15.70994407  3400
